IRIDIUM 26              
1 24903U 97043A   25097.86178812  .00000748  00000+0  24558-3 0  9990
2 24903  86.3959 140.1683 0002189  89.1302 271.0146 14.37070504447115
IRIDIUM 22              
1 24907U 97043E   25097.87310642  .00000632  00000+0  21138-3 0  9997
2 24907  86.3971 143.6393 0002269  93.9201 266.2255 14.35894309446671
DUMMY MASS 1            
1 24925U 97048A   25097.55442638  .00000841  00000+0  90975-4 0  9996
2 24925  86.3400 167.9741 0008309  50.8882 309.3080 14.86912649494630
DUMMY MASS 2            
1 24926U 97048B   25097.57213922  .00000848  00000+0  92304-4 0  9996
2 24926  86.3401 169.5583 0009377  58.8251 301.3892 14.86665553494416
IRIDIUM 29              
1 24944U 97051A   25097.57242742  .00000812  00000+0  27092-3 0  9994
2 24944  86.4021 173.4965 0002354  99.2405 260.9059 14.36392756443136
IRIDIUM 33              
1 24946U 97051C   25097.26802537  .00000574  00000+0  19548-3 0  9998
2 24946  86.3936 172.8789 0006148 322.2304  37.8460 14.34841530442572
IRIDIUM 28              
1 24948U 97051E   25097.59153551  .00000738  00000+0  24110-3 0  9994
2 24948  86.4024 171.0476 0001927  86.1031 274.0387 14.37321569443707
IRIDIUM 36              
1 24967U 97056C   25097.56565694  .00000962  00000+0  31475-3 0  9993
2 24967  86.4031 202.6285 0001919  98.6001 261.5414 14.37533583442073
